INTELSAT 23 (IS-23)     
1 38867U 12057A   26183.78598288 -.00000274  00000+0  00000+0 0  9994
2 38867   0.0141   7.2100 0000331 202.0482 301.4950  1.00267174 50112
FM-6                    
1 39360U 13058A   26183.70211648 -.00000005  00000+0  00000+0 0  9991
2 39360   0.0160  40.7600 0001960 138.6453 237.7772  1.00271889 46228
INTELSAT 30 (IS-30)     
1 40271U 14062A   26183.56378632 -.00000141  00000+0  00000+0 0  9992
2 40271   0.0214  49.9436 0001444 357.0524 341.5175  1.00277454  6942
DIRECTV 14              
1 40333U 14078B   26183.42034461 -.00000115  00000+0  00000+0 0  9993
2 40333   0.0102  26.2148 0000293   2.4668 303.8682  1.00271936 42196
DIRECTV 15              
1 40663U 15026A   26183.70471649 -.00000091  00000+0  00000+0 0  9990
2 40663   0.0175  66.4844 0000484 341.1134  23.9506  1.00269039 40615
SKY MEXICO-1            
1 40664U 15026B   26183.56699300 -.00000224  00000+0  00000+0 0  9999
2 40664   0.0178  34.8991 0002550  81.6332 289.3882  1.00273686 40600
INTELSAT 34 (IS-34)     
1 40874U 15039A   26183.57149969 -.00000275  00000+0  00000+0 0  9994
2 40874   0.0108  13.9056 0000469  22.0921  34.8455  1.00269667 39786
INTELSAT 31 (IS-31)     
1 41581U 16035A   26183.56378632 -.00000141  00000+0  00000+0 0  9999
2 41581   0.0275 259.9848 0000566 356.1386 132.3882  1.00274605 36831
INTELSAT 36 (IS-36)     
1 41747U 16053A   26183.82701008 -.00000013  00000+0  00000+0 0  9997
2 41747   0.0098  12.9079 0002007 336.4355 297.7405  1.00270238 36116
INTELSAT 32E (IS-32E)   
1 41945U 17007B   26183.43143799  .00000000  00000+0  00000+0 0  9996
2 41945   0.0218  28.0694 0000954 325.1520  39.3916  1.00263397 34370
INTELSAT 35E (IS-35E)   
1 42818U 17041A   26183.78962292  .00000000  00000+0  00000+0 0  9999
2 42818   0.0227  35.9920 0001981  62.3412  72.2547  1.00271294 32975
INTELSAT 37E (IS-37E)   
1 42950U 17059A   26183.79291625 -.00000130  00000+0  00000+0 0  9996
2 42950   0.0182  34.0408 0002837  68.0515  86.1828  1.00272973 32220
AZERSPACE 2 (IS-38)     
1 43632U 18074A   26183.80536772  .00000000  00000+0  00000+0 0  9994
2 43632   0.0228  36.6472 0001885  74.6484 144.5913  1.00276723 28606
HORIZONS-3E             
1 43633U 18074B   26183.68738308 -.00000020  00000+0  00000+0 0  9993
2 43633   0.0166 197.9110 0000602  85.7941  53.4880  1.00271230 28491
AT&T T-16               
1 44333U 19034A   26183.70480316 -.00000104  00000+0  00000+0 0  9997
2 44333   0.0156  62.5128 0000630 281.1843  89.9134  1.00271130 25782
INTELSAT 39 (IS-39)     
1 44476U 19049B   26183.86988079  .00000000  00000+0  00000+0 0  9991
2 44476   0.0212  29.7717 0000593 309.6573 316.5859  1.00268633 25288
GALAXY 30 (G-30)        
1 46114U 20056C   26183.77134264  .00000000  00000+0  00000+0 0  9991
2 46114   0.0211  28.9948 0002171  73.4623 331.0350  1.00271803 21446
GALAXY 33 (G-33)        
1 54026U 22128A   26183.69882314  .00000090  00000+0  00000+0 0  9990
2 54026   0.0123  43.2438 0002250  55.0472 301.0264  1.00271772 13895
GALAXY 34 (G-34)        
1 54027U 22128B   26183.85030603  .00000070  00000+0  00000+0 0  9993
2 54027   0.0130  31.8533 0001956  68.7137 357.4298  1.00268570 14079
GALAXY 31 (G-31)        
1 54243U 22153A   26183.70116315  .00000024  00000+0  00000+0 0  9999
2 54243   0.0144  81.6881 0001557  17.8273 312.6321  1.00272151  7281
GALAXY 32 (G-32)        
1 54244U 22153B   26183.56456632 -.00000164  00000+0  00000+0 0  9999
2 54244   0.0105  15.3279 0001988  35.2758 342.2488  1.00272409 13291
GALAXY 35 (G-35)        
1 54741U 22170A   26183.56413299 -.00000152  00000+0  00000+0 0  9999
2 54741   0.0164  55.7529 0002307  46.1625 288.6647  1.00272915 13049
GALAXY 36 (G-36)        
1 54742U 22170B   26183.63626661 -.00000175  00000+0  00000+0 0  9992
2 54742   0.0039  81.1750 0002923  11.7961 327.7578  1.00272523 12924
GALAXY 37 (G-37)        
1 57493U 23112A   26183.77125596  .00000000  00000+0  00000+0 0  9997
2 57493   0.0195  19.9544 0002049  87.2319 324.2746  1.00270035 10694
